{
  "type": "FeatureCollection",
  "features": [
    {
      "type": "Feature",
      "properties": {
        "norad_id": 66435,
        "name": "STARLINK-35502",
        "group": "last-30-days",
        "lat": -15.272364792700715,
        "lon": -65.48782683592619,
        "alt_km": 416.55988828253885,
        "timestamp": "2025-12-04T03:47:53.335315+00:00",
        "meta_object_name": "STARLINK-35502",
        "meta_object_id": "2025-259P",
        "meta_epoch": "2025-12-03T20:00:01.999008",
        "meta_mean_motion": 15.50609697,
        "meta_eccentricity": 0.0001494,
        "meta_inclination": 43.0004,
        "meta_ra_of_asc_node": 99.3744,
        "meta_arg_of_pericenter": 286.9636,
        "meta_mean_anomaly": 259.9056,
        "meta_ephemeris_type": 0,
        "meta_classification_type": "U",
        "meta_norad_cat_id": 66435,
        "meta_element_set_no": 999,
        "meta_rev_at_epoch": 484,
        "meta_bstar": -0.0014244,
        "meta_mean_motion_dot": -0.00083112,
        "meta_mean_motion_ddot": 0,
        "tle_line1": "1 66435U 25259P   25337.83335647 -.00083112  00000+0 -14244-2 0  9999",
        "tle_line2": "2 66435  43.0004  99.3744 0001494 286.9636 259.9056 15.50609697  4841"
      },
      "geometry": {
        "type": "Point",
        "coordinates": [
          -65.48782683592619,
          -15.272364792700715
        ]
      }
    },
    {
      "type": "Feature",
      "properties": {
        "norad_id": 66436,
        "name": "STARLINK-35501",
        "group": "last-30-days",
        "lat": -17.745787144952708,
        "lon": -62.45155886338957,
        "alt_km": 416.4047147681722,
        "timestamp": "2025-12-04T03:47:53.335324+00:00",
        "meta_object_name": "STARLINK-35501",
        "meta_object_id": "2025-259Q",
        "meta_epoch": "2025-12-03T20:00:01.999008",
        "meta_mean_motion": 15.50593297,
        "meta_eccentricity": 0.0001474,
        "meta_inclination": 43.0004,
        "meta_ra_of_asc_node": 99.3638,
        "meta_arg_of_pericenter": 268.6831,
        "meta_mean_anomaly": 282.0203,
        "meta_ephemeris_type": 0,
        "meta_classification_type": "U",
        "meta_norad_cat_id": 66436,
        "meta_element_set_no": 999,
        "meta_rev_at_epoch": 484,
        "meta_bstar": -0.00085536,
        "meta_mean_motion_dot": -0.00050226,
        "meta_mean_motion_ddot": 0,
        "tle_line1": "1 66436U 25259Q   25337.83335647 -.00050226  00000+0 -85536-3 0  9993",
        "tle_line2": "2 66436  43.0004  99.3638 0001474 268.6831 282.0203 15.50593297  4845"
      },
      "geometry": {
        "type": "Point",
        "coordinates": [
          -62.45155886338957,
          -17.745787144952708
        ]
      }
    },
    {
      "type": "Feature",
      "properties": {
        "norad_id": 66437,
        "name": "STARLINK-35474",
        "group": "last-30-days",
        "lat": -18.9717708432735,
        "lon": -60.893298355193636,
        "alt_km": 416.6515968967542,
        "timestamp": "2025-12-04T03:47:53.335334+00:00",
        "meta_object_name": "STARLINK-35474",
        "meta_object_id": "2025-259R",
        "meta_epoch": "2025-12-03T20:00:01.999008",
        "meta_mean_motion": 15.50603245,
        "meta_eccentricity": 0.00012,
        "meta_inclination": 43.0004,
        "meta_ra_of_asc_node": 99.3589,
        "meta_arg_of_pericenter": 273.6156,
        "meta_mean_anomaly": 279.0087,
        "meta_ephemeris_type": 0,
        "meta_classification_type": "U",
        "meta_norad_cat_id": 66437,
        "meta_element_set_no": 999,
        "meta_rev_at_epoch": 484,
        "meta_bstar": -0.0012707,
        "meta_mean_motion_dot": -0.00074246,
        "meta_mean_motion_ddot": 0,
        "tle_line1": "1 66437U 25259R   25337.83335647 -.00074246  00000+0 -12707-2 0  9991",
        "tle_line2": "2 66437  43.0004  99.3589 0001200 273.6156 279.0087 15.50603245  4845"
      },
      "geometry": {
        "type": "Point",
        "coordinates": [
          -60.893298355193636,
          -18.9717708432735
        ]
      }
    },
    {
      "type": "Feature",
      "properties": {
        "norad_id": 66438,
        "name": "STARLINK-34681",
        "group": "last-30-days",
        "lat": -20.10694055120039,
        "lon": -59.41503405197695,
        "alt_km": 417.1069036965946,
        "timestamp": "2025-12-04T03:47:53.335344+00:00",
        "meta_object_name": "STARLINK-34681",
        "meta_object_id": "2025-259S",
        "meta_epoch": "2025-12-03T12:00:02.998944",
        "meta_mean_motion": 15.50680423,
        "meta_eccentricity": 0.0001434,
        "meta_inclination": 43.0002,
        "meta_ra_of_asc_node": 101.3034,
        "meta_arg_of_pericenter": 274.4395,
        "meta_mean_anomaly": 217.2064,
        "meta_ephemeris_type": 0,
        "meta_classification_type": "U",
        "meta_norad_cat_id": 66438,
        "meta_element_set_no": 999,
        "meta_rev_at_epoch": 468,
        "meta_bstar": -0.0034617,
        "meta_mean_motion_dot": -0.00199063,
        "meta_mean_motion_ddot": 0,
        "tle_line1": "1 66438U 25259S   25337.50003471 -.00199063  00000+0 -34617-2 0  9992",
        "tle_line2": "2 66438  43.0002 101.3034 0001434 274.4395 217.2064 15.50680423  4680"
      },
      "geometry": {
        "type": "Point",
        "coordinates": [
          -59.41503405197695,
          -20.10694055120039
        ]
      }
    },
    {
      "type": "Feature",
      "properties": {
        "norad_id": 66439,
        "name": "STARLINK-35327",
        "group": "last-30-days",
        "lat": -16.51507710093166,
        "lon": -63.9770271185048,
        "alt_km": 416.6484941935223,
        "timestamp": "2025-12-04T03:47:53.335356+00:00",
        "meta_object_name": "STARLINK-35327",
        "meta_object_id": "2025-259T",
        "meta_epoch": "2025-12-03T20:00:01.999008",
        "meta_mean_motion": 15.50610596,
        "meta_eccentricity": 0.0001449,
        "meta_inclination": 43.0005,
        "meta_ra_of_asc_node": 99.371,
        "meta_arg_of_pericenter": 287.5463,
        "meta_mean_anomaly": 261.2354,
        "meta_ephemeris_type": 0,
        "meta_classification_type": "U",
        "meta_norad_cat_id": 66439,
        "meta_element_set_no": 999,
        "meta_rev_at_epoch": 484,
        "meta_bstar": -0.0013637,
        "meta_mean_motion_dot": -0.00079624,
        "meta_mean_motion_ddot": 0,
        "tle_line1": "1 66439U 25259T   25337.83335647 -.00079624  00000+0 -13637-2 0  9991",
        "tle_line2": "2 66439  43.0005  99.3710 0001449 287.5463 261.2354 15.50610596  4841"
      },
      "geometry": {
        "type": "Point",
        "coordinates": [
          -63.9770271185048,
          -16.51507710093166
        ]
      }
    },
    {
      "type": "Feature",
      "properties": {
        "norad_id": 66440,
        "name": "STARLINK-35405",
        "group": "last-30-days",
        "lat": -21.305316230985806,
        "lon": -57.8110406488472,
        "alt_km": 417.14522606790433,
        "timestamp": "2025-12-04T03:47:53.335366+00:00",
        "meta_object_name": "STARLINK-35405",
        "meta_object_id": "2025-259U",
        "meta_epoch": "2025-12-03T12:00:02.998944",
        "meta_mean_motion": 15.5065851,
        "meta_eccentricity": 0.0001523,
        "meta_inclination": 43.0002,
        "meta_ra_of_asc_node": 101.2992,
        "meta_arg_of_pericenter": 277.1084,
        "meta_mean_anomaly": 216.4656,
        "meta_ephemeris_type": 0,
        "meta_classification_type": "U",
        "meta_norad_cat_id": 66440,
        "meta_element_set_no": 999,
        "meta_rev_at_epoch": 479,
        "meta_bstar": -0.0029219,
        "meta_mean_motion_dot": -0.00168597,
        "meta_mean_motion_ddot": 0,
        "tle_line1": "1 66440U 25259U   25337.50003471 -.00168597  00000+0 -29219-2 0  9995",
        "tle_line2": "2 66440  43.0002 101.2992 0001523 277.1084 216.4656 15.50658510  4791"
      },
      "geometry": {
        "type": "Point",
        "coordinates": [
          -57.8110406488472,
          -21.305316230985806
        ]
      }
    },
    {
      "type": "Feature",
      "properties": {
        "norad_id": 66441,
        "name": "STARLINK-35426",
        "group": "last-30-days",
        "lat": -22.48198419524087,
        "lon": -56.19094959564219,
        "alt_km": 417.19726230132164,
        "timestamp": "2025-12-04T03:47:53.335378+00:00",
        "meta_object_name": "STARLINK-35426",
        "meta_object_id": "2025-259V",
        "meta_epoch": "2025-12-03T12:00:02.998944",
        "meta_mean_motion": 15.50667456,
        "meta_eccentricity": 0.0001485,
        "meta_inclination": 43.0002,
        "meta_ra_of_asc_node": 101.2935,
        "meta_arg_of_pericenter": 274.8165,
        "meta_mean_anomaly": 220.6681,
        "meta_ephemeris_type": 0,
        "meta_classification_type": "U",
        "meta_norad_cat_id": 66441,
        "meta_element_set_no": 999,
        "meta_rev_at_epoch": 479,
        "meta_bstar": -0.003119,
        "meta_mean_motion_dot": -0.00179748,
        "meta_mean_motion_ddot": 0,
        "tle_line1": "1 66441U 25259V   25337.50003471 -.00179748  00000+0 -31190-2 0  9997",
        "tle_line2": "2 66441  43.0002 101.2935 0001485 274.8165 220.6681 15.50667456  4794"
      },
      "geometry": {
        "type": "Point",
        "coordinates": [
          -56.19094959564219,
          -22.48198419524087
        ]
      }
    }
  ]
}